ONEWEB-0637             
1 56078U 23043AJ  26197.64012986 -.00000100  00000+0 -29945-3 0  9993
2 56078  87.8981 253.3457 0001943  88.9819 271.1534 13.15548717160303
ONEWEB-0647             
1 56079U 23043AK  26197.63537396 -.00000151  00000+0 -43449-3 0  9991
2 56079  87.8985 253.3593 0001964 100.7598 259.3754 13.15549283160298
ONEWEB-0651             
1 56080U 23043AL  26197.85880013  .00000085  00000+0  19148-3 0  9997
2 56080  87.8983 253.3082 0001841  93.2945 266.8395 13.15548331161521
ONEWEB-0718             
1 56081U 23043AM  26197.62586640  .00000006  00000+0 -18090-4 0  9992
2 56081  87.8988 253.3349 0002508  91.4943 268.6474 13.15549655160305
ONEWEB-0561             
1 56710U 23068A   26197.66705818  .00000017  00000+0  10748-4 0  9995
2 56710  87.9185 268.5690 0001790 104.8922 255.2410 13.20769898153391
ONEWEB-0668             
1 56711U 23068B   26197.53575365  .00000018  00000+0  13138-4 0  9991
2 56711  87.9081 222.9425 0002293  80.0306 280.1084 13.16595344155649
ONEWEB-0676             
1 56712U 23068C   26197.61967492 -.00000011  00000+0 -61324-4 0  9992
2 56712  87.9083 222.9324 0001765  93.4616 266.6717 13.16594469155576
ONEWEB-0677             
1 56713U 23068D   26197.65528639 -.00000029  00000+0 -10235-3 0  9996
2 56713  87.9185 268.5622 0001852  89.3863 270.7482 13.20771786153692
ONEWEB-0678             
1 56714U 23068E   26197.59418396  .00000065  00000+0  13862-3 0  9995
2 56714  87.8988 253.3363 0002009 105.7343 254.4009 13.15548148153151
ONEWEB-0679             
1 56715U 23068F   26197.57850469 -.00000037  00000+0 -13074-3 0  9991
2 56715  87.9078 222.9316 0001949  76.9333 283.2015 13.16594513155598
ONEWEB-0680             
1 56716U 23068G   26197.61748744  .00000053  00000+0  96038-4 0  9997
2 56716  87.9240 238.1160 0002220  80.3359 279.8026 13.21825839154985
ONEWEB-0681             
1 56717U 23068H   26197.59813683  .00000060  00000+0  11436-3 0  9996
2 56717  87.9236 238.1200 0001091  95.1843 264.9416 13.21827899154978
ONEWEB-0682             
1 56718U 23068J   26197.61795366  .00000112  00000+0  26225-3 0  9997
2 56718  87.8991 253.3317 0002160  82.6665 277.4711 13.15548115153324
ONEWEB-0683             
1 56719U 23068K   26197.64171509 -.00000116  00000+0 -34208-3 0  9994
2 56719  87.8991 253.3276 0002235  91.6816 268.4571 13.15548312153299
ONEWEB-0684             
1 56720U 23068L   26197.64963338 -.00000113  00000+0 -33382-3 0  9994
2 56720  87.8989 253.3153 0003094 117.9207 242.2237 13.15549398153128
ONEWEB-0686             
1 56721U 23068M   26197.61492567 -.00000052  00000+0 -17091-3 0  9994
2 56721  87.9072 222.9451 0002411  92.3753 267.7654 13.16594640155588
ONEWEB-0694             
1 56722U 23068N   26197.54526198  .00000002  00000+0 -28276-4 0  9997
2 56722  87.9092 222.9295 0002270  81.4648 278.6740 13.16593502155631
ONEWEB-0696             
1 56723U 23068P   26197.53079082  .00000285  00000+0  72197-3 0  9994
2 56723  87.8982 253.3748 0002126 112.5419 247.5937 13.15550816153228
ONEWEB-0703             
1 56724U 23068Q   26197.61636178  .00000113  00000+0  26692-3 0  9998
2 56724  87.8986 253.3392 0001791 123.9639 236.1662 13.15547761153128
ONEWEB-0721             
1 56725U 23068R   26197.64694484 -.00000033  00000+0 -11312-3 0  9992
2 56725  86.6742  76.1110 0001742  79.5505 280.5825 13.22470656161836
ONEWEB-0015             
1 61594U 24188A   26197.53112198 -.00000440  00000+0 -12763-2 0  9993
2 61594  87.8882  15.2489 0001484  75.8486 284.2807 13.11418012 88304
ONEWEB-0687             
1 61595U 24188B   26197.84588302  .00000004  00000+0 -22349-4 0  9990
2 61595  87.9143 359.9745 0001925  78.4853 281.6495 13.17650195 89802
ONEWEB-0688             
1 61596U 24188C   26197.49487655 -.00000132  00000+0 -37368-3 0  9990
2 61596  87.9142   0.0445 0001102  53.7257 306.3976 13.17649669 89751
ONEWEB-0689             
1 61597U 24188D   26197.56504100  .00000539  00000+0  14853-2 0  9996
2 61597  87.8897  15.2041 0002076  86.0358 274.1007 13.11416473 88306
ONEWEB-0690             
1 61598U 24188E   26197.49891972  .00000214  00000+0  56924-3 0  9991
2 61598  87.8893  15.2278 0001626 111.1098 249.0204 13.11415018 88478
ONEWEB-0691             
1 61599U 24188F   26197.49383686  .00000386  00000+0  10533-2 0  9995
2 61599  87.8903  15.1402 0001672  80.6330 279.4986 13.11415103 88322
ONEWEB-0692             
1 61600U 24188G   26197.51416242 -.00000369  00000+0 -10761-2 0  9992
2 61600  87.8882  15.2438 0002637  94.5294 265.6135 13.11416821 88316
ONEWEB-0693             
1 61601U 24188H   26197.43076632  .00000056  00000+0  11160-3 0  9995
2 61601  87.9138   0.0757 0001466 117.9202 242.2078 13.17650197 89732
ONEWEB-0695             
1 61602U 24188J   26197.56674287  .00000443  00000+0  12135-2 0  9992
2 61602  87.8883  15.2255 0002349  87.6048 272.5348 13.11415859 88319
ONEWEB-0697             
1 61603U 24188K   26197.52264622 -.00000551  00000+0 -15914-2 0  9997
2 61603  87.8885  15.2247 0002568  96.8627 263.2793 13.11417058 88292
ONEWEB-0698             
1 61604U 24188L   26197.50061586  .00000160  00000+0  41459-3 0  9998
2 61604  87.8882  15.2426 0002541 117.0548 243.0840 13.11415203 88310
