OBJECT_NAME,OBJECT_ID,EPOCH,MEAN_MOTION,ECCENTRICITY,INCLINATION,RA_OF_ASC_NODE,ARG_OF_PERICENTER,MEAN_ANOMALY,EPHEMERIS_TYPE,CLASSIFICATION_TYPE,NORAD_CAT_ID,ELEMENT_SET_NO,REV_AT_EPOCH,BSTAR,MEAN_MOTION_DOT,MEAN_MOTION_DDOT
ONEWEB-0637,2023-043AJ,2026-07-16T15:21:47.219904,13.15548717,.0001943,87.8981,253.3457,88.9819,271.1534,0,U,56078,999,16030,-.29945E-3,-.1E-5,0
ONEWEB-0647,2023-043AK,2026-07-16T15:14:56.310144,13.15549283,.0001964,87.8985,253.3593,100.7598,259.3754,0,U,56079,999,16029,-.43449E-3,-.151E-5,0
ONEWEB-0651,2023-043AL,2026-07-16T20:36:40.331232,13.15548331,.0001841,87.8983,253.3082,93.2945,266.8395,0,U,56080,999,16152,.19148E-3,.85E-6,0
ONEWEB-0718,2023-043AM,2026-07-16T15:01:14.856960,13.15549655,.0002508,87.8988,253.3349,91.4943,268.6474,0,U,56081,999,16030,-.1809E-4,.6E-7,0
ONEWEB-0561,2023-068A,2026-07-16T16:00:33.826752,13.20769898,.000179,87.9185,268.5690,104.8922,255.2410,0,U,56710,999,15339,.10748E-4,.17E-6,0
ONEWEB-0668,2023-068B,2026-07-16T12:51:29.115360,13.16595344,.0002293,87.9081,222.9425,80.0306,280.1084,0,U,56711,999,15564,.13138E-4,.18E-6,0
ONEWEB-0676,2023-068C,2026-07-16T14:52:19.913088,13.16594469,.0001765,87.9083,222.9324,93.4616,266.6717,0,U,56712,999,15557,-.61324E-4,-.11E-6,0
ONEWEB-0677,2023-068D,2026-07-16T15:43:36.744096,13.20771786,.0001852,87.9185,268.5622,89.3863,270.7482,0,U,56713,999,15369,-.10235E-3,-.29E-6,0
ONEWEB-0678,2023-068E,2026-07-16T14:15:37.494144,13.15548148,.0002009,87.8988,253.3363,105.7343,254.4009,0,U,56714,999,15315,.13862E-3,.65E-6,0
ONEWEB-0679,2023-068F,2026-07-16T13:53:02.805216,13.16594513,.0001949,87.9078,222.9316,76.9333,283.2015,0,U,56715,999,15559,-.13074E-3,-.37E-6,0
ONEWEB-0680,2023-068G,2026-07-16T14:49:10.914816,13.21825839,.000222,87.9240,238.1160,80.3359,279.8026,0,U,56716,999,15498,.96038E-4,.53E-6,0
ONEWEB-0681,2023-068H,2026-07-16T14:21:19.022112,13.21827899,.0001091,87.9236,238.1200,95.1843,264.9416,0,U,56717,999,15497,.11436E-3,.6E-6,0
ONEWEB-0682,2023-068J,2026-07-16T14:49:51.196224,13.15548115,.000216,87.8991,253.3317,82.6665,277.4711,0,U,56718,999,15332,.26225E-3,.112E-5,0
ONEWEB-0683,2023-068K,2026-07-16T15:24:04.183776,13.15548312,.0002235,87.8991,253.3276,91.6816,268.4571,0,U,56719,999,15329,-.34208E-3,-.116E-5,0
ONEWEB-0684,2023-068L,2026-07-16T15:35:28.324032,13.15549398,.0003094,87.8989,253.3153,117.9207,242.2237,0,U,56720,999,15312,-.33382E-3,-.113E-5,0
ONEWEB-0686,2023-068M,2026-07-16T14:45:29.577888,13.16594640,.0002411,87.9072,222.9451,92.3753,267.7654,0,U,56721,999,15558,-.17091E-3,-.52E-6,0
ONEWEB-0694,2023-068N,2026-07-16T13:05:10.635072,13.16593502,.000227,87.9092,222.9295,81.4648,278.6740,0,U,56722,999,15563,-.28276E-4,.2E-7,0
ONEWEB-0696,2023-068P,2026-07-16T12:44:20.326848,13.15550816,.0002126,87.8982,253.3748,112.5419,247.5937,0,U,56723,999,15322,.72197E-3,.285E-5,0
ONEWEB-0703,2023-068Q,2026-07-16T14:47:33.657792,13.15547761,.0001791,87.8986,253.3392,123.9639,236.1662,0,U,56724,999,15312,.26692E-3,.113E-5,0
ONEWEB-0721,2023-068R,2026-07-16T15:31:36.034176,13.22470656,.0001742,86.6742,76.1110,79.5505,280.5825,0,U,56725,999,16183,-.11312E-3,-.33E-6,0
ONEWEB-0015,2024-188A,2026-07-16T12:44:48.939072,13.11418012,.0001484,87.8882,15.2489,75.8486,284.2807,0,U,61594,999,8830,-.12763E-2,-.44E-5,0
ONEWEB-0687,2024-188B,2026-07-16T20:18:04.292928,13.17650195,.0001925,87.9143,359.9745,78.4853,281.6495,0,U,61595,999,8980,-.22349E-4,.4E-7,0
ONEWEB-0688,2024-188C,2026-07-16T11:52:37.333920,13.17649669,.0001102,87.9142,0.0445,53.7257,306.3976,0,U,61596,999,8975,-.37368E-3,-.132E-5,0
ONEWEB-0689,2024-188D,2026-07-16T13:33:39.542400,13.11416473,.0002076,87.8897,15.2041,86.0358,274.1007,0,U,61597,999,8830,.14853E-2,.539E-5,0
ONEWEB-0690,2024-188E,2026-07-16T11:58:26.663808,13.11415018,.0001626,87.8893,15.2278,111.1098,249.0204,0,U,61598,999,8847,.56924E-3,.214E-5,0
ONEWEB-0691,2024-188F,2026-07-16T11:51:07.504704,13.11415103,.0001672,87.8903,15.1402,80.6330,279.4986,0,U,61599,999,8832,.10533E-2,.386E-5,0
ONEWEB-0692,2024-188G,2026-07-16T12:20:23.633088,13.11416821,.0002637,87.8882,15.2438,94.5294,265.6135,0,U,61600,999,8831,-.10761E-2,-.369E-5,0
ONEWEB-0693,2024-188H,2026-07-16T10:20:18.210048,13.17650197,.0001466,87.9138,0.0757,117.9202,242.2078,0,U,61601,999,8973,.1116E-3,.56E-6,0
ONEWEB-0695,2024-188J,2026-07-16T13:36:06.583968,13.11415859,.0002349,87.8883,15.2255,87.6048,272.5348,0,U,61602,999,8831,.12135E-2,.443E-5,0
ONEWEB-0697,2024-188K,2026-07-16T12:32:36.633408,13.11417058,.0002568,87.8885,15.2247,96.8627,263.2793,0,U,61603,999,8829,-.15914E-2,-.551E-5,0
ONEWEB-0698,2024-188L,2026-07-16T12:00:53.210304,13.11415203,.0002541,87.8882,15.2426,117.0548,243.0840,0,U,61604,999,8831,.41459E-3,.16E-5,0
